[{"OBJECT_NAME":"ITUPSAT1","OBJECT_ID":"2009-051E","EPOCH":"2026-03-09T22:57:51.275808","MEAN_MOTION":14.60268809,"ECCENTRICITY":0.0007289,"INCLINATION":98.4113,"RA_OF_ASC_NODE":334.2386,"ARG_OF_PERICENTER":177.2915,"MEAN_ANOMALY":182.8326,"EPHEMERIS_TYPE":0,"CLASSIFICATION_TYPE":"U","NORAD_CAT_ID":35935,"ELEMENT_SET_NO":999,"REV_AT_EPOCH":87425,"BSTAR":0.00025648628,"MEAN_MOTION_DOT":1.19e-5,"MEAN_MOTION_DDOT":0},{"OBJECT_NAME":"SPOT 4","OBJECT_ID":"1998-017A","EPOCH":"2026-03-09T18:25:02.530560","MEAN_MOTION":14.56023803,"ECCENTRICITY":0.00129104,"INCLINATION":98.2426,"RA_OF_ASC_NODE":165.6534,"ARG_OF_PERICENTER":164.8873,"MEAN_ANOMALY":195.2713,"EPHEMERIS_TYPE":0,"CLASSIFICATION_TYPE":"U","NORAD_CAT_ID":25260,"ELEMENT_SET_NO":999,"REV_AT_EPOCH":46484,"BSTAR":0.00013504679,"MEAN_MOTION_DOT":5.49e-6,"MEAN_MOTION_DDOT":0}]
